H,albedo,e,a,q,i,om,w,ma,ad,n,per,per_y,moid,diameter_pred
13.0,0.257,0.1464195483416394,2.211778712604619,1.887931072473398,4.836715224506492,178.0642536703569,225.0902389450807,150.4383120356719,2.53562635273584,0.2996343250497603,1201.464484885751,3.28943048565572,0.899769,6.4473257
13.6,0.051,0.1510006904811247,3.2059083061878,2.721813938334269,0.660067096214735,89.8751976232866,327.2517248566404,76.982920343291,3.690002674041331,0.1717028203425927,2096.645816776361,5.74030339979839,1.73389,10.71772
13.8,0.037,0.1472363448526903,2.357726799849037,2.010583723678034,3.547123493505947,28.89371540973839,175.8129308887736,151.4663557018704,2.70486987602004,0.2722474707872125,1322.326334048387,3.62033219451988,1.00665,12.833344
